{"type": "FeatureCollection", "features": [ {"type": "Feature", "properties": {"norad_id": 41335, "name": "SENTINEL-3A", "group": "resource", "lat": -65.47529974881898, "lon": 74.78180496547546, "alt_km": 810.4946454206556, "timestamp": "2025-12-16T08:59:42.815870+00:00", "meta": {"OBJECT_NAME": "SENTINEL-3A", "OBJECT_ID": "2016-011A", "EPOCH": "2025-12-15T21:31:36.356448", "MEAN_MOTION": 14.26731908, "ECCENTRICITY": 9.334e-05, "INCLINATION": 98.6312, "RA_OF_ASC_NODE": 54.865, "ARG_OF_PERICENTER": 91.8173, "MEAN_ANOMALY": 268.3114, "EPHEMERIS_TYPE": 0, "CLASSIFICATION_TYPE": "U", "NORAD_CAT_ID": 41335, "ELEMENT_SET_NO": 999, "REV_AT_EPOCH": 51192, "BSTAR": 7.1563842e-05, "MEAN_MOTION_DOT": 1.29e-06, "MEAN_MOTION_DDOT": 0}, "tle": {"line1": "1 41335U 16011A   25349.89694857  .00000129  00000+0  71564-4 0  9992", "line2": "2 41335  98.6312  54.8650 0000933  91.8173 268.3114 14.26731908511923"}}, "geometry": {"type": "Point", "coordinates": [74.78180496547546, -65.47529974881898]}}, {"type": "Feature", "properties": {"norad_id": 41556, "name": "ZIYUAN 3-2 (ZY 3-2)", "group": "resource", "lat": -23.052038061495768, "lon": -118.68959492649937, "alt_km": 499.29455395930745, "timestamp": "2025-12-16T08:59:42.815880+00:00", "meta": {"OBJECT_NAME": "ZIYUAN 3-2 (ZY 3-2)", "OBJECT_ID": "2016-033A", "EPOCH": "2025-12-16T00:12:45.220608", "MEAN_MOTION": 15.21552422, "ECCENTRICITY": 0.00126503, "INCLINATION": 97.4046, "RA_OF_ASC_NODE": 64.1229, "ARG_OF_PERICENTER": 236.4358, "MEAN_ANOMALY": 123.5671, "EPHEMERIS_TYPE": 0, "CLASSIFICATION_TYPE": "U", "NORAD_CAT_ID": 41556, "ELEMENT_SET_NO": 999, "REV_AT_EPOCH": 53013, "BSTAR": 0.00024047069, "MEAN_MOTION_DOT": 5.36e-05, "MEAN_MOTION_DDOT": 0}, "tle": {"line1": "1 41556U 16033A   25350.00885672  .00005360  00000+0  24047-3 0  9998", "line2": "2 41556  97.4046  64.1229 0012650 236.4358 123.5671 15.21552422530138"}}, "geometry": {"type": "Point", "coordinates": [-118.68959492649937, -23.052038061495768]}}, {"type": "Feature", "properties": {"norad_id": 41599, "name": "CARTOSAT-2C", "group": "resource", "lat": 61.32673419887776, "lon": -118.51561156074217, "alt_km": 499.3082678373876, "timestamp": "2025-12-16T08:59:42.815890+00:00", "meta": {"OBJECT_NAME": "CARTOSAT-2C", "OBJECT_ID": "2016-040A", "EPOCH": "2025-12-15T22:59:41.434080", "MEAN_MOTION": 15.19148416, "ECCENTRICITY": 0.00114153, "INCLINATION": 97.4772, "RA_OF_ASC_NODE": 47.1759, "ARG_OF_PERICENTER": 52.781, "MEAN_ANOMALY": 307.4464, "EPHEMERIS_TYPE": 0, "CLASSIFICATION_TYPE": "U", "NORAD_CAT_ID": 41599, "ELEMENT_SET_NO": 999, "REV_AT_EPOCH": 52589, "BSTAR": 0.0002380429, "MEAN_MOTION_DOT": 4.942e-05, "MEAN_MOTION_DDOT": 0}, "tle": {"line1": "1 41599U 16040A   25349.95811845  .00004942  00000+0  23804-3 0  9991", "line2": "2 41599  97.4772  47.1759 0011415  52.7810 307.4464 15.19148416525891"}}, "geometry": {"type": "Point", "coordinates": [-118.51561156074217, 61.32673419887776]}}, {"type": "Feature", "properties": {"norad_id": 41601, "name": "SKYSAT-C1", "group": "resource", "lat": -12.874033504080757, "lon": 28.789173287927884, "alt_km": 471.2002841298081, "timestamp": "2025-12-16T08:59:42.815901+00:00", "meta": {"OBJECT_NAME": "SKYSAT-C1", "OBJECT_ID": "2016-040C", "EPOCH": "2025-12-15T20:30:58.322880", "MEAN_MOTION": 15.32649899, "ECCENTRICITY": 0.0002005, "INCLINATION": 96.9827, "RA_OF_ASC_NODE": 26.6932, "ARG_OF_PERICENTER": 6.0946, "MEAN_ANOMALY": 354.0321, "EPHEMERIS_TYPE": 0, "CLASSIFICATION_TYPE": "U", "NORAD_CAT_ID": 41601, "ELEMENT_SET_NO": 999, "REV_AT_EPOCH": 52975, "BSTAR": 0.00023555796, "MEAN_MOTION_DOT": 7.355e-05, "MEAN_MOTION_DDOT": 0}, "tle": {"line1": "1 41601U 16040C   25349.85484170  .00007355  00000+0  23556-3 0  9996", "line2": "2 41601  96.9827  26.6932 0002005   6.0946 354.0321 15.32649899529757"}}, "geometry": {"type": "Point", "coordinates": [28.789173287927884, -12.874033504080757]}}, {"type": "Feature", "properties": {"norad_id": 41603, "name": "LAPAN-A3", "group": "resource", "lat": 61.94206837042999, "lon": -178.59344151047878, "alt_km": 471.0097345483764, "timestamp": "2025-12-16T08:59:42.815911+00:00", "meta": {"OBJECT_NAME": "LAPAN-A3", "OBJECT_ID": "2016-040E", "EPOCH": "2025-12-15T23:04:37.989984", "MEAN_MOTION": 15.3157944, "ECCENTRICITY": 0.00093366, "INCLINATION": 97.1426, "RA_OF_ASC_NODE": 347.4008, "ARG_OF_PERICENTER": 321.1522, "MEAN_ANOMALY": 38.9048, "EPHEMERIS_TYPE": 0, "CLASSIFICATION_TYPE": "U", "NORAD_CAT_ID": 41603, "ELEMENT_SET_NO": 999, "REV_AT_EPOCH": 52675, "BSTAR": 0.00011498009, "MEAN_MOTION_DOT": 3.436e-05, "MEAN_MOTION_DDOT": 0}, "tle": {"line1": "1 41603U 16040E   25349.96155081  .00003436  00000+0  11498-3 0  9994", "line2": "2 41603  97.1426 347.4008 0009336 321.1522  38.9048 15.31579440526754"}}, "geometry": {"type": "Point", "coordinates": [-178.59344151047878, 61.94206837042999]}}, {"type": "Feature", "properties": {"norad_id": 41604, "name": "BIROS", "group": "resource", "lat": -10.475663301772729, "lon": 23.27197259079032, "alt_km": 305.970885200908, "timestamp": "2025-12-16T08:59:42.815922+00:00", "meta": {"OBJECT_NAME": "BIROS", "OBJECT_ID": "2016-040F", "EPOCH": "2025-12-15T01:20:12.221664", "MEAN_MOTION": 15.90659584, "ECCENTRICITY": 0.00036552, "INCLINATION": 97.068, "RA_OF_ASC_NODE": 20.5828, "ARG_OF_PERICENTER": 143.3286, "MEAN_ANOMALY": 216.8239, "EPHEMERIS_TYPE": 0, "CLASSIFICATION_TYPE": "U", "NORAD_CAT_ID": 41604, "ELEMENT_SET_NO": 999, "REV_AT_EPOCH": 52909, "BSTAR": 0.00047663709, "MEAN_MOTION_DOT": 0.00145956, "MEAN_MOTION_DDOT": 9.714412e-06}, "tle": {"line1": "1 41604U 16040F   25349.05569701  .00145956  97144-5  47664-3 0  9992", "line2": "2 41604  97.0680  20.5828 0003655 143.3286 216.8239 15.90659584529096"}}, "geometry": {"type": "Point", "coordinates": [23.27197259079032, -10.475663301772729]}}, {"type": "Feature", "properties": {"norad_id": 41727, "name": "GAOFEN-3", "group": "resource", "lat": 12.594347708535222, "lon": 177.79887434862638, "alt_km": 752.6581742551516, "timestamp": "2025-12-16T08:59:42.815933+00:00", "meta": {"OBJECT_NAME": "GAOFEN-3", "OBJECT_ID": "2016-049A", "EPOCH": "2025-12-15T23:53:50.714304", "MEAN_MOTION": 14.42214743, "ECCENTRICITY": 0.00013283, "INCLINATION": 98.4043, "RA_OF_ASC_NODE": 355.5327, "ARG_OF_PERICENTER": 60.3551, "MEAN_ANOMALY": 299.7771, "EPHEMERIS_TYPE": 0, "CLASSIFICATION_TYPE": "U", "NORAD_CAT_ID": 41727, "ELEMENT_SET_NO": 999, "REV_AT_EPOCH": 49224, "BSTAR": 4.3779225e-05, "MEAN_MOTION_DOT": 1.01e-06, "MEAN_MOTION_DDOT": 0}, "tle": {"line1": "1 41727U 16049A   25349.99572586  .00000101  00000+0  43779-4 0  9990", "line2": "2 41727  98.4043 355.5327 0001328  60.3551 299.7771 14.42214743492240"}}, "geometry": {"type": "Point", "coordinates": [177.79887434862638, 12.594347708535222]}}, {"type": "Feature", "properties": {"norad_id": 41771, "name": "SKYSAT-C4", "group": "resource", "lat": 48.2602598047019, "lon": 7.542118620168351, "alt_km": 434.7418773521249, "timestamp": "2025-12-16T08:59:42.815944+00:00", "meta": {"OBJECT_NAME": "SKYSAT-C4", "OBJECT_ID": "2016-058B", "EPOCH": "2025-12-15T12:32:32.363520", "MEAN_MOTION": 15.42334292, "ECCENTRICITY": 0.00017541, "INCLINATION": 96.9376, "RA_OF_ASC_NODE": 14.5751, "ARG_OF_PERICENTER": 133.0259, "MEAN_ANOMALY": 227.1136, "EPHEMERIS_TYPE": 0, "CLASSIFICATION_TYPE": "U", "NORAD_CAT_ID": 41771, "ELEMENT_SET_NO": 999, "REV_AT_EPOCH": 51710, "BSTAR": 0.00024142398, "MEAN_MOTION_DOT": 0.00010328, "MEAN_MOTION_DDOT": 0}, "tle": {"line1": "1 41771U 16058B   25349.52259680  .00010328  00000+0  24142-3 0  9999", "line2": "2 41771  96.9376  14.5751 0001754 133.0259 227.1136 15.42334292517106"}}, "geometry": {"type": "Point", "coordinates": [7.542118620168351, 48.2602598047019]}}, {"type": "Feature", "properties": {"norad_id": 41772, "name": "SKYSAT-C5", "group": "resource", "lat": -38.46659495051952, "lon": -151.68855737312933, "alt_km": 468.3985945675531, "timestamp": "2025-12-16T08:59:42.815955+00:00", "meta": {"OBJECT_NAME": "SKYSAT-C5", "OBJECT_ID": "2016-058C", "EPOCH": "2025-12-15T13:15:38.629152", "MEAN_MOTION": 15.34228407, "ECCENTRICITY": 0.00028175, "INCLINATION": 97.0769, "RA_OF_ASC_NODE": 33.1875, "ARG_OF_PERICENTER": 269.3508, "MEAN_ANOMALY": 90.7413, "EPHEMERIS_TYPE": 0, "CLASSIFICATION_TYPE": "U", "NORAD_CAT_ID": 41772, "ELEMENT_SET_NO": 999, "REV_AT_EPOCH": 51559, "BSTAR": 0.00028372843, "MEAN_MOTION_DOT": 9.329e-05, "MEAN_MOTION_DDOT": 0}, "tle": {"line1": "1 41772U 16058C   25349.55253043  .00009329  00000+0  28373-3 0  9999", "line2": "2 41772  97.0769  33.1875 0002817 269.3508  90.7413 15.34228407515594"}}, "geometry": {"type": "Point", "coordinates": [-151.68855737312933, -38.46659495051952]}}, {"type": "Feature", "properties": {"norad_id": 41773, "name": "SKYSAT-C2", "group": "resource", "lat": -82.76727037082766, "lon": 118.02990967637346, "alt_km": 462.51763925754494, "timestamp": "2025-12-16T08:59:42.815966+00:00", "meta": {"OBJECT_NAME": "SKYSAT-C2", "OBJECT_ID": "2016-058D", "EPOCH": "2025-12-15T19:20:02.610528", "MEAN_MOTION": 15.37343111, "ECCENTRICITY": 0.0003915, "INCLINATION": 97.0363, "RA_OF_ASC_NODE": 14.2028, "ARG_OF_PERICENTER": 26.9287, "MEAN_ANOMALY": 333.2161, "EPHEMERIS_TYPE": 0, "CLASSIFICATION_TYPE": "U", "NORAD_CAT_ID": 41773, "ELEMENT_SET_NO": 999, "REV_AT_EPOCH": 51683, "BSTAR": 0.00022897846, "MEAN_MOTION_DOT": 8.305e-05, "MEAN_MOTION_DDOT": 0}, "tle": {"line1": "1 41773U 16058D   25349.80558577  .00008305  00000+0  22898-3 0  9997", "line2": "2 41773  97.0363  14.2028 0003915  26.9287 333.2161 15.37343111516832"}}, "geometry": {"type": "Point", "coordinates": [118.02990967637346, -82.76727037082766]}}]}